     2.10           GPS NAV DATA                            RINEX VERSION / TYPE
EPHEMCHECK 2.10     MCC D.ZALETAEV      11-Mar-14 16:01      PGM / RUN BY / DATE
A new version of accumulating navigation files by IANC      COMMENT
    2.7940D-08  0.0000D+00 -1.1921D-07  5.9605D-08          ION ALPHA
    1.3312D+05 -1.6384D+04 -1.9661D+05 -6.5536D+04          ION BETA
    3.725290298462D-09 1.332267629550D-14   233472     1783 DELTA-UTC: A0,A1,T,W
    16                                                      LEAP SECONDS
                                                            END OF HEADER
20 14 03 09 17 59 44.0 1.684986054897D-04 3.524291969370D-12 0.000000000000D+00
    4.300000000000D+01 5.656250000000D+00 5.638091771232D-09-6.097057514347D-01
    3.110617399216D-07 5.915383459069D-03 7.173046469688D-06 5.153556709290D+03
    6.478400000000D+04-7.636845111847D-08 6.664290657770D-01 3.911554813385D-08
    9.271897588208D-01 2.291250000000D+02 1.314337263903D+00-8.636074078083D-09
   -4.643050700859D-12 1.000000000000D+00 1.783000000000D+03 0.000000000000D+00
    2.000000000000D+00 0.000000000000D+00-7.916241884232D-09 4.300000000000D+01
    5.751000000000D+04 4.000000000000D+00
21 14 03 09 18 00  0.0-3.483719192445D-04-2.273736754432D-12 0.000000000000D+00
    4.700000000000D+01-3.906250000000D+00 5.330222041522D-09-1.088864102075D-01
   -5.587935447693D-08 2.119329001289D-02 8.385628461838D-06 5.153784873962D+03
    6.480000000000D+04-1.303851604462D-07-3.257143654821D-01 3.185123205185D-07
    9.325330641795D-01 2.082500000000D+02-2.054349327233D+00-8.700719256183D-09
    3.475144616516D-10 1.000000000000D+00 1.783000000000D+03 0.000000000000D+00
    2.000000000000D+00 0.000000000000D+00-1.117587089539D-08 4.700000000000D+01
    5.754000000000D+04 0.000000000000D+00
22 14 03 09 18 00  0.0 2.183634787798D-04 2.614797267597D-12 0.000000000000D+00
    2.500000000000D+01 5.531250000000D+00 5.633806310357D-09-1.676114621290D+00
    3.408640623093D-07 6.874526268803D-03 6.379559636116D-06 5.153725296021D+03
    6.480000000000D+04 1.378357410431D-07 7.216215080323D-01 3.911554813385D-08
    9.239686897018D-01 2.334375000000D+02-2.066472444506D+00-8.475352863968D-09
    2.285809562463D-11 1.000000000000D+00 1.783000000000D+03 0.000000000000D+00
    2.000000000000D+00 0.000000000000D+00-1.722946763039D-08 2.500000000000D+01
    5.754000000000D+04 0.000000000000D+00
23 14 03 09 18 00  0.0-2.445653080940D-06-3.183231456205D-12 0.000000000000D+00
    6.000000000000D+01 3.009375000000D+01 4.784484808340D-09 2.409408640032D+00
    1.581385731697D-06 8.981306338683D-03 8.417293429375D-06 5.153585681915D+03
    6.480000000000D+04-2.104789018631D-07 1.784540601439D+00-2.421438694000D-08
    9.522841918075D-01 2.168125000000D+02-2.805022798127D+00-8.059978462427D-09
   -1.782217151636D-10 1.000000000000D+00 1.783000000000D+03 0.000000000000D+00
    2.000000000000D+00 0.000000000000D+00-2.002343535423D-08 6.000000000000D+01
    5.754000000000D+04 4.000000000000D+00
24 14  3  9 18  0  0.0-2.465536817908D-05-6.821210263297D-13 0.000000000000D+00
    4.500000000000D+01 6.568750000000D+01 4.677337628323D-09 1.728030842415D+00
    3.507360816002D-06 1.956381485797D-03 6.385147571564D-06 5.153623363495D+03
    6.480000000000D+04 1.303851604462D-08 2.811383628841D+00 5.401670932770D-08
    9.575519257441D-01 2.541875000000D+02 2.336429507267D-01-8.262486694832D-09
   -9.643258414016D-12 1.000000000000D+00 1.783000000000D+03 0.000000000000D+00
    2.800000000000D+00 0.000000000000D+00 3.259629011154D-09 4.500000000000D+01
    5.754000000000D+04 4.000000000000D+00
25 14 03 09 18 00  0.0 1.784600317478D-05 1.477928890381D-12 0.000000000000D+00
    2.100000000000D+01-2.628125000000D+01 4.307322054586D-09-3.928377970539D-01
   -1.491978764534D-06 3.289103740826D-03 4.176050424576D-06 5.153643375397D+03
    6.480000000000D+04 3.166496753693D-08-2.418530667179D+00 9.685754776001D-08
    9.756472202857D-01 3.048437500000D+02 6.111600105019D-01-8.218913549740D-09
   -1.475061461864D-10 1.000000000000D+00 1.783000000000D+03 0.000000000000D+00
    2.000000000000D+00 0.000000000000D+00 5.587935447693D-09 2.100000000000D+01
    5.754000000000D+04 4.000000000000D+00
26 14 03 09 17 59 28.0 1.435717567801D-04-1.091393642128D-11 0.000000000000D+00
    7.000000000000D+00 4.459375000000D+01 4.096599059977D-09 2.325951918285D+00
    1.979991793633D-06 2.148713392671D-02 8.936971426010D-06 5.153690355301D+03
    6.476800000000D+04 1.657754182816D-07 1.871331290082D+00-2.980232238770D-07
    9.754970619853D-01 2.092500000000D+02 1.268725912487D+00-7.477454211369D-09
   -2.685826283599D-10 1.000000000000D+00 1.783000000000D+03 0.000000000000D+00
    2.000000000000D+00 0.000000000000D+00-6.053596735001D-09 7.000000000000D+00
    5.751000000000D+04 4.000000000000D+00
27 14 03 09 18 00  0.0-2.019666135311D-05-4.547473508865D-13 0.000000000000D+00
    6.800000000000D+01-5.434375000000D+01 4.280178433902D-09-2.584056677704D+00
   -2.756714820862D-06 9.152836864814D-04 7.983297109604D-06 5.153675231934D+03
    6.480000000000D+04 5.587935447693D-08-1.370227466880D+00 4.284083843231D-08
    9.624042304449D-01 2.288750000000D+02 4.058625560903D-02-7.973189219967D-09
    1.267909943703D-10 1.000000000000D+00 1.783000000000D+03 0.000000000000D+00
    2.000000000000D+00 0.000000000000D+00 1.862645149231D-09 6.800000000000D+01
    5.754000000000D+04 4.000000000000D+00
28 14 03 09 18 00  0.0 3.383210860193D-04 2.842170943040D-12 0.000000000000D+00
    3.400000000000D+01-2.896875000000D+01 3.880161525416D-09-1.900250620403D+00
   -1.363456249237D-06 1.922416465823D-02 4.984438419342D-06 5.153665723801D+03
    6.480000000000D+04 3.408640623093D-07-2.352619936178D+00 1.639127731323D-07
    9.859986516015D-01 2.940937500000D+02-1.719710652371D+00-7.716749905740D-09
   -1.082187950363D-10 1.000000000000D+00 1.783000000000D+03 0.000000000000D+00
    2.000000000000D+00 0.000000000000D+00-1.071020960808D-08 3.400000000000D+01
    5.754000000000D+04 0.000000000000D+00
29 14 03 09 18 00  0.0 5.168071947992D-04 2.955857780762D-12 0.000000000000D+00
    8.000000000000D+00-7.068750000000D+01 4.176602619310D-09 1.303121869742D-01
   -3.632158041000D-06 1.673024147749D-03 8.592382073402D-06 5.153746259689D+03
    6.480000000000D+04 2.048909664154D-08-1.316164132593D+00-6.705522537231D-08
    9.684296623198D-01 2.194375000000D+02-9.684700447104D-01-7.913900645917D-09
    4.107313794632D-11 1.000000000000D+00 1.783000000000D+03 0.000000000000D+00
    2.000000000000D+00 0.000000000000D+00-9.313225746155D-09 8.000000000000D+00
    5.754000000000D+04 4.000000000000D+00
30 14 03 09 18 00  0.0 3.180466592312D-06 3.296918293927D-12 0.000000000000D+00
    3.300000000000D+01 4.793750000000D+01 4.465185998725D-09 1.138736655901D+00
    2.570450305939D-06 2.169244689867D-04 5.545094609261D-06 5.180493267059D+03
    6.480000000000D+04 4.656612873077D-08 2.900173200472D+00-3.539025783539D-08
    9.597021198112D-01 2.644687500000D+02-3.111691304399D+00-7.970688997716D-09
   -7.714606731213D-11 1.000000000000D+00 1.783000000000D+03 0.000000000000D+00
    2.000000000000D+00 1.000000000000D+00 5.122274160385D-09 3.300000000000D+01
    5.754000000000D+04 4.000000000000D+00
30 14 03 09 18 00  0.0 3.180466592312D-06 3.296918293927D-12 0.000000000000D+00
    3.300000000000D+01 4.793750000000D+01 4.465185998725D-09 1.138736655901D+00
    2.570450305939D-06 2.169244689867D-04 5.545094609261D-06 5.180493267059D+03
    6.480000000000D+04 4.656612873077D-08 2.900173200472D+00-3.539025783539D-08
    9.597021198112D-01 2.644687500000D+02-3.111691304399D+00-7.970688997716D-09
   -7.714606731213D-11 1.000000000000D+00 1.783000000000D+03 0.000000000000D+00
    2.000000000000D+00 0.000000000000D+00 5.122274160385D-09 3.300000000000D+01
    6.480000000000D+04 0.000000000000D+00
31 14 03 09 18 00  0.0 3.337198868394D-04 2.273736754432D-13 0.000000000000D+00
    7.900000000000D+01 5.084375000000D+01 4.175888079772D-09 6.722213992109D-01
    2.458691596985D-06 8.167658932507D-03 6.567686796188D-06 5.153786800385D+03
    6.480000000000D+04 6.705522537231D-08 2.850488938832D+00-1.173466444016D-07
    9.791316395286D-01 2.604687500000D+02-6.452118499262D-01-8.024263031814D-09
   -5.535944966328D-11 1.000000000000D+00 1.783000000000D+03 0.000000000000D+00
    2.000000000000D+00 0.000000000000D+00-1.303851604462D-08 7.900000000000D+01
    5.754000000000D+04 4.000000000000D+00
32 14 03 09 18 00  0.0-4.722992889583D-04 7.048583938740D-12 0.000000000000D+00
    7.000000000000D+01 3.937500000000D+00 5.094140664852D-09 1.359725352076D+00
    1.266598701477D-07 1.145754696336D-02 7.148832082748D-06 5.153489450455D+03
    6.480000000000D+04 7.823109626770D-08 8.120005401561D-01 1.583248376846D-07
    9.480569554290D-01 2.370312500000D+02-1.746921636698D-01-8.249986471753D-09
   -1.935794857744D-10 1.000000000000D+00 1.783000000000D+03 0.000000000000D+00
    2.000000000000D+00 0.000000000000D+00-3.259629011154D-09 7.000000000000D+01
    5.754000000000D+04 4.000000000000D+00
 1 14 03 09 20 00  0.0 3.215391188860D-06 1.932676241267D-12 0.000000000000D+00
    8.000000000000D+00-5.156250000000D+00 4.461971681025D-09 2.425179697143D+00
   -1.713633537292D-07 2.786332392134D-03 8.285045623779D-06 5.153683641434D+03
    7.200000000000D+04-8.195638656616D-08-3.158135173235D-01-3.725290298462D-08
    9.610951396646D-01 2.178125000000D+02 3.483660588218D-01-7.978546712195D-09
    3.339424847759D-10 1.000000000000D+00 1.783000000000D+03 0.000000000000D+00
    2.000000000000D+00 0.000000000000D+00 6.519258022308D-09 8.000000000000D+00
    6.474000000000D+04 4.000000000000D+00
